start=new Date('2022-12-24T00:00:00.000Z').valueOf();
sats=[{"ELEMENT_SET_NO":"999","MEAN_MOTION":"15.08844096","APOAPSIS":"541.732","ECCENTRICITY":"0.00028900","GP_ID":"221307797","NORAD_CAT_ID":"49748","EPHEMERIS_TYPE":"0","REF_FRAME":"TEME","INCLINATION":"53.2167","DECAY_DATE":null,"MEAN_ELEMENT_THEORY":"SGP4","MEAN_MOTION_DDOT":"0.0000000000000","REV_AT_EPOCH":"5861","RA_OF_ASC_NODE":"10.2501","ARG_OF_PERICENTER":"22.4035","PERIOD":"95.437","TIME_SYSTEM":"UTC","CENTER_NAME":"EARTH","BSTAR":"0.00028881000000","OBJECT_TYPE":"PAYLOAD","PERIAPSIS":"537.734","FILE":"3720518","TLE_LINE1":"1 49748U 21115AA  22357.73369170  .00004312  00000-0  28881-3 0  9997","COUNTRY_CODE":"US","EPOCH":"2022-12-23T17:36:30.962880","RCS_SIZE":"LARGE","TLE_LINE2":"2 49748  53.2167  10.2501 0002890  22.4035 337.7083 15.08844096 58618","MEAN_MOTION_DOT":"0.00004312","CLASSIFICATION_TYPE":"U","OBJECT_ID":"2021-115AA","SEMIMAJOR_AXIS":"6917.868","SITE":"AFETR","OBJECT_NAME":"STARLINK-3248","LAUNCH_DATE":"2021-12-02","MEAN_ANOMALY":"337.7083"},{"SEMIMAJOR_AXIS":"6917.859","SITE":"AFETR","OBJECT_ID":"2021-115AB","MEAN_ANOMALY":"321.1915","OBJECT_NAME":"STARLINK-3250","LAUNCH_DATE":"2021-12-02","TLE_LINE1":"1 49749U 21115AB  22358.05385190  .00000533  00000-0  51565-4 0  9991","COUNTRY_CODE":"US","RCS_SIZE":"LARGE","EPOCH":"2022-12-24T01:17:32.804160","OBJECT_TYPE":"PAYLOAD","PERIAPSIS":"538.016","FILE":"3720607","CLASSIFICATION_TYPE":"U","TLE_LINE2":"2 49749  53.2178   8.7981 0002469  38.9254 321.1915 15.08846939 59768","MEAN_MOTION_DOT":"0.00000533","RA_OF_ASC_NODE":"8.7981","ARG_OF_PERICENTER":"38.9254","MEAN_ELEMENT_THEORY":"SGP4","MEAN_MOTION_DDOT":"0.0000000000000","REV_AT_EPOCH":"5976","BSTAR":"0.00005156500000","PERIOD":"95.437","TIME_SYSTEM":"UTC","CENTER_NAME":"EARTH","GP_ID":"221311754","ELEMENT_SET_NO":"999","MEAN_MOTION":"15.08846939","APOAPSIS":"541.432","ECCENTRICITY":"0.00024690","INCLINATION":"53.2178","DECAY_DATE":null,"NORAD_CAT_ID":"49749","EPHEMERIS_TYPE":"0","REF_FRAME":"TEME"},{"MEAN_MOTION_DDOT":"0.0000000000000","MEAN_ELEMENT_THEORY":"SGP4","REV_AT_EPOCH":"5861","RA_OF_ASC_NODE":"10.2065","ARG_OF_PERICENTER":"31.0100","PERIOD":"95.438","CENTER_NAME":"EARTH","TIME_SYSTEM":"UTC","BSTAR":"0.00016605000000","ELEMENT_SET_NO":"999","MEAN_MOTION":"15.08836348","ECCENTRICITY":"0.00025430","APOAPSIS":"541.516","GP_ID":"221306796","REF_FRAME":"TEME","NORAD_CAT_ID":"49750","EPHEMERIS_TYPE":"0","INCLINATION":"53.2176","DECAY_DATE":null,"OBJECT_ID":"2021-115AC","SITE":"AFETR","SEMIMAJOR_AXIS":"6917.892","LAUNCH_DATE":"2021-12-02","OBJECT_NAME":"STARLINK-3236","MEAN_ANOMALY":"329.1041","OBJECT_TYPE":"PAYLOAD","PERIAPSIS":"537.997","FILE":"3720518","TLE_LINE1":"1 49750U 21115AC  22357.74106173  .00002355  00000-0  16605-3 0  9999","RCS_SIZE":"LARGE","EPOCH":"2022-12-23T17:47:07.733472","COUNTRY_CODE":"US","TLE_LINE2":"2 49750  53.2176  10.2065 0002543  31.0100 329.1041 15.08836348 58610","MEAN_MOTION_DOT":"0.00002355","CLASSIFICATION_TYPE":"U"},{"BSTAR":"0.00018297000000","CENTER_NAME":"EARTH","TIME_SYSTEM":"UTC","PERIOD":"95.438","ARG_OF_PERICENTER":"29.9688","RA_OF_ASC_NODE":"8.7717","REV_AT_EPOCH":"5977","MEAN_MOTION_DDOT":"0.0000000000000","MEAN_ELEMENT_THEORY":"SGP4","DECAY_DATE":null,"INCLINATION":"53.2171","REF_FRAME":"TEME","EPHEMERIS_TYPE":"0","NORAD_CAT_ID":"49751","GP_ID":"221311753","ECCENTRICITY":"0.00028750","APOAPSIS":"541.740","ELEMENT_SET_NO":"999","MEAN_MOTION":"15.08838087","MEAN_ANOMALY":"330.1468","LAUNCH_DATE":"2021-12-02","OBJECT_NAME":"STARLINK-3229","SEMIMAJOR_AXIS":"6917.886","SITE":"AFETR","OBJECT_ID":"2021-115AD","CLASSIFICATION_TYPE":"U","MEAN_MOTION_DOT":"0.00002625","TLE_LINE2":"2 49751  53.2171   8.7717 0002875  29.9688 330.1468 15.08838087 59772","EPOCH":"2022-12-24T01:28:08.366016","RCS_SIZE":"LARGE","COUNTRY_CODE":"US","TLE_LINE1":"1 49751U 21115AD  22358.06120794  .00002625  00000-0  18297-3 0  9990","FILE":"3720607","OBJECT_TYPE":"PAYLOAD","PERIAPSIS":"537.762"},{"LAUNCH_DATE":"2021-12-02","OBJECT_NAME":"STARLINK-3209","MEAN_ANOMALY":"331.2170","OBJECT_ID":"2021-115AE","SEMIMAJOR_AXIS":"6917.882","SITE":"AFETR","MEAN_MOTION_DOT":"0.00004015","TLE_LINE2":"2 49752  53.2170   1.6337 0002555  28.8964 331.2170 15.08839422 58700","CLASSIFICATION_TYPE":"U","FILE":"3720302","PERIAPSIS":"537.980","OBJECT_TYPE":"PAYLOAD","EPOCH":"2022-12-23T10:12:42.678144","RCS_SIZE":"LARGE","COUNTRY_CODE":"US","TLE_LINE1":"1 49752U 21115AE  22357.42549396  .00004015  00000-0  27021-3 0  9993","CENTER_NAME":"EARTH","TIME_SYSTEM":"UTC","PERIOD":"95.438","BSTAR":"0.00027021000000","REV_AT_EPOCH":"5870","MEAN_MOTION_DDOT":"0.0000000000000","MEAN_ELEMENT_THEORY":"SGP4","ARG_OF_PERICENTER":"28.8964","RA_OF_ASC_NODE":"1.6337","REF_FRAME":"TEME","EPHEMERIS_TYPE":"0","NORAD_CAT_ID":"49752","DECAY_DATE":null,"INCLINATION":"53.2170","ECCENTRICITY":"0.00025550","APOAPSIS":"541.515","ELEMENT_SET_NO":"999","MEAN_MOTION":"15.08839422","GP_ID":"221276920"},{"BSTAR":"0.00015134000000","PERIOD":"95.438","CENTER_NAME":"EARTH","TIME_SYSTEM":"UTC","RA_OF_ASC_NODE":"8.7461","ARG_OF_PERICENTER":"30.0442","MEAN_ELEMENT_THEORY":"SGP4","MEAN_MOTION_DDOT":"0.0000000000000","REV_AT_EPOCH":"5977","INCLINATION":"53.2166","DECAY_DATE":null,"EPHEMERIS_TYPE":"0","NORAD_CAT_ID":"49753","REF_FRAME":"TEME","GP_ID":"221312009","MEAN_MOTION":"15.08834737","ELEMENT_SET_NO":"999","APOAPSIS":"541.450","ECCENTRICITY":"0.00024410","MEAN_ANOMALY":"330.0690","OBJECT_NAME":"STARLINK-3200","LAUNCH_DATE":"2021-12-02","SITE":"AFETR","SEMIMAJOR_AXIS":"6917.896","OBJECT_ID":"2021-115AF","CLASSIFICATION_TYPE":"U","TLE_LINE2":"2 49753  53.2166   8.7461 0002441  30.0442 330.0690 15.08834737 59778","MEAN_MOTION_DOT":"0.00002121","TLE_LINE1":"1 49753U 21115AF  22358.06857252  .00002121  00000-0  15134-3 0  9996","COUNTRY_CODE":"US","RCS_SIZE":"LARGE","EPOCH":"2022-12-24T01:38:44.665728","OBJECT_TYPE":"PAYLOAD","PERIAPSIS":"538.073","FILE":"3720607"},{"INCLINATION":"53.2189","DECAY_DATE":null,"EPHEMERIS_TYPE":"0","NORAD_CAT_ID":"49754","REF_FRAME":"TEME","GP_ID":"221306296","MEAN_MOTION":"15.08847445","ELEMENT_SET_NO":"999","APOAPSIS":"541.422","ECCENTRICITY":"0.00024570","BSTAR":"-0.00000915360000","PERIOD":"95.437","TIME_SYSTEM":"UTC","CENTER_NAME":"EARTH","RA_OF_ASC_NODE":"0.1585","ARG_OF_PERICENTER":"43.4648","MEAN_ELEMENT_THEORY":"SGP4","MEAN_MOTION_DDOT":"0.0000000000000","REV_AT_EPOCH":"5875","CLASSIFICATION_TYPE":"U","TLE_LINE2":"2 49754  53.2189   0.1585 0002457  43.4648 316.6538 15.08847445 58758","MEAN_MOTION_DOT":"-0.00000434","TLE_LINE1":"1 49754U 21115AG  22357.75030110 -.00000434  00000-0 -91536-5 0  9997","COUNTRY_CODE":"US","EPOCH":"2022-12-23T18:00:26.015040","RCS_SIZE":"LARGE","OBJECT_TYPE":"PAYLOAD","PERIAPSIS":"538.023","FILE":"3720518","MEAN_ANOMALY":"316.6538","OBJECT_NAME":"STARLINK-3193","LAUNCH_DATE":"2021-12-02","SITE":"AFETR","SEMIMAJOR_AXIS":"6917.858","OBJECT_ID":"2021-115AG"},{"REF_FRAME":"TEME","NORAD_CAT_ID":"49755","EPHEMERIS_TYPE":"0","INCLINATION":"53.2158","DECAY_DATE":null,"ELEMENT_SET_NO":"999","MEAN_MOTION":"15.08838835","ECCENTRICITY":"0.00011910","APOAPSIS":"540.573","GP_ID":"221312006","PERIOD":"95.438","CENTER_NAME":"EARTH","TIME_SYSTEM":"UTC","BSTAR":"0.00005906800000","MEAN_MOTION_DDOT":"0.0000000000000","MEAN_ELEMENT_THEORY":"SGP4","REV_AT_EPOCH":"5977","RA_OF_ASC_NODE":"8.7034","ARG_OF_PERICENTER":"101.6382","TLE_LINE2":"2 49755  53.2158   8.7034 0001191 101.6382 258.4743 15.08838835 59771","MEAN_MOTION_DOT":"0.00000652","CLASSIFICATION_TYPE":"U","OBJECT_TYPE":"PAYLOAD","PERIAPSIS":"538.925","FILE":"3720607","TLE_LINE1":"1 49755U 21115AH  22358.07594285  .00000652  00000-0  59068-4 0  9995","EPOCH":"2022-12-24T01:49:21.462240","RCS_SIZE":"LARGE","COUNTRY_CODE":"US","LAUNCH_DATE":"2021-12-02","OBJECT_NAME":"STARLINK-3210","MEAN_ANOMALY":"258.4743","OBJECT_ID":"2021-115AH","SITE":"AFETR","SEMIMAJOR_AXIS":"6917.884"},{"OBJECT_ID":"2021-115AJ","SEMIMAJOR_AXIS":"6917.834","SITE":"AFETR","OBJECT_NAME":"STARLINK-3207","LAUNCH_DATE":"2021-12-02","MEAN_ANOMALY":"327.0967","OBJECT_TYPE":"PAYLOAD","PERIAPSIS":"537.961","FILE":"3720610","TLE_LINE1":"1 49756U 21115AJ  22358.03268676  .00004872  00000-0  32386-3 0  9995","COUNTRY_CODE":"US","EPOCH":"2022-12-24T00:47:04.136064","RCS_SIZE":"LARGE","TLE_LINE2":"2 49756  53.2165 358.8855 0002512  33.0182 327.0967 15.08855323 59901","MEAN_MOTION_DOT":"0.00004872","CLASSIFICATION_TYPE":"U","MEAN_ELEMENT_THEORY":"SGP4","MEAN_MOTION_DDOT":"0.0000000000000","REV_AT_EPOCH":"5990","RA_OF_ASC_NODE":"358.8855","ARG_OF_PERICENTER":"33.0182","PERIOD":"95.437","CENTER_NAME":"EARTH","TIME_SYSTEM":"UTC","BSTAR":"0.00032386000000","MEAN_MOTION":"15.08855323","ELEMENT_SET_NO":"999","APOAPSIS":"541.436","ECCENTRICITY":"0.00025120","GP_ID":"221312012","NORAD_CAT_ID":"49756","EPHEMERIS_TYPE":"0","REF_FRAME":"TEME","INCLINATION":"53.2165","DECAY_DATE":null},{"BSTAR":"-0.00001197600000","PERIOD":"95.437","TIME_SYSTEM":"UTC","CENTER_NAME":"EARTH","RA_OF_ASC_NODE":"358.9209","ARG_OF_PERICENTER":"37.7037","MEAN_ELEMENT_THEORY":"SGP4","MEAN_MOTION_DDOT":"0.0000000000000","REV_AT_EPOCH":"5990","INCLINATION":"53.2169","DECAY_DATE":null,"NORAD_CAT_ID":"49757","EPHEMERIS_TYPE":"0","REF_FRAME":"TEME","GP_ID":"221311762","ELEMENT_SET_NO":"999","MEAN_MOTION":"15.08847267","APOAPSIS":"541.255","ECCENTRICITY":"0.00022150","MEAN_ANOMALY":"322.4110","OBJECT_NAME":"STARLINK-3197","LAUNCH_DATE":"2021-12-02","SEMIMAJOR_AXIS":"6917.858","SITE":"AFETR","OBJECT_ID":"2021-115AK","CLASSIFICATION_TYPE":"U","TLE_LINE2":"2 49757  53.2169 358.9209 0002215  37.7037 322.4110 15.08847267 59907","MEAN_MOTION_DOT":"-0.00000479","TLE_LINE1":"1 49757U 21115AK  22358.02533013 -.00000479  00000-0 -11976-4 0  9999","COUNTRY_CODE":"US","RCS_SIZE":"LARGE","EPOCH":"2022-12-24T00:36:28.523232","OBJECT_TYPE":"PAYLOAD","PERIAPSIS":"538.191","FILE":"3720610"}];
